{
  "type": "FeatureCollection",
  "features": [
    {
      "type": "Feature",
      "properties": {
        "norad_id": 43581,
        "name": "BEIDOU-3 M5 (C23)",
        "group": "gnss",
        "lat": -22.89538268838455,
        "lon": 170.9529107661034,
        "alt_km": 21525.83571462395,
        "timestamp": "2025-12-08T23:34:04.212371+00:00",
        "meta_object_name": "BEIDOU-3 M5 (C23)",
        "meta_object_id": "2018-062A",
        "meta_epoch": "2025-12-07T09:56:06.121536",
        "meta_mean_motion": 1.86228654,
        "meta_eccentricity": 0.00021243,
        "meta_inclination": 54.089,
        "meta_ra_of_asc_node": 188.8244,
        "meta_arg_of_pericenter": 353.2088,
        "meta_mean_anomaly": 6.859,
        "meta_ephemeris_type": 0,
        "meta_classification_type": "U",
        "meta_norad_cat_id": 43581,
        "meta_element_set_no": 999,
        "meta_rev_at_epoch": 5006,
        "meta_bstar": 0,
        "meta_mean_motion_dot": 5.9e-07,
        "meta_mean_motion_ddot": 0,
        "tle_line1": "1 43581U 18062A   25341.41395974  .00000059  00000+0  00000+0 0  9997",
        "tle_line2": "2 43581  54.0890 188.8244 0002124 353.2088   6.8590  1.86228654 50063"
      },
      "geometry": {
        "type": "Point",
        "coordinates": [
          170.9529107661034,
          -22.89538268838455
        ]
      }
    },
    {
      "type": "Feature",
      "properties": {
        "norad_id": 43582,
        "name": "BEIDOU-3 M6 (C24)",
        "group": "gnss",
        "lat": 46.26930957528786,
        "lon": -121.97159937479876,
        "alt_km": 21501.827935039895,
        "timestamp": "2025-12-08T23:34:04.212382+00:00",
        "meta_object_name": "BEIDOU-3 M6 (C24)",
        "meta_object_id": "2018-062B",
        "meta_epoch": "2025-12-07T19:32:10.570272",
        "meta_mean_motion": 1.86229692,
        "meta_eccentricity": 0.00077761,
        "meta_inclination": 54.0886,
        "meta_ra_of_asc_node": 188.7999,
        "meta_arg_of_pericenter": 46.2812,
        "meta_mean_anomaly": 313.8511,
        "meta_ephemeris_type": 0,
        "meta_classification_type": "U",
        "meta_norad_cat_id": 43582,
        "meta_element_set_no": 999,
        "meta_rev_at_epoch": 5007,
        "meta_bstar": 0,
        "meta_mean_motion_dot": 5.5e-07,
        "meta_mean_motion_ddot": 0,
        "tle_line1": "1 43582U 18062B   25341.81401123  .00000055  00000+0  00000+0 0  9992",
        "tle_line2": "2 43582  54.0886 188.7999 0007776  46.2812 313.8511  1.86229692 50075"
      },
      "geometry": {
        "type": "Point",
        "coordinates": [
          -121.97159937479876,
          46.26930957528786
        ]
      }
    },
    {
      "type": "Feature",
      "properties": {
        "norad_id": 43602,
        "name": "BEIDOU-3 M12 (C26)",
        "group": "gnss",
        "lat": 51.541805571729846,
        "lon": -57.93574584735359,
        "alt_km": 21511.097770541437,
        "timestamp": "2025-12-08T23:34:04.212396+00:00",
        "meta_object_name": "BEIDOU-3 M12 (C26)",
        "meta_object_id": "2018-067A",
        "meta_epoch": "2025-12-07T18:02:34.116000",
        "meta_mean_motion": 1.86227677,
        "meta_eccentricity": 0.00091651,
        "meta_inclination": 54.1832,
        "meta_ra_of_asc_node": 187.5325,
        "meta_arg_of_pericenter": 40.8071,
        "meta_mean_anomaly": 319.3279,
        "meta_ephemeris_type": 0,
        "meta_classification_type": "U",
        "meta_norad_cat_id": 43602,
        "meta_element_set_no": 999,
        "meta_rev_at_epoch": 4955,
        "meta_bstar": 0,
        "meta_mean_motion_dot": 5.6e-07,
        "meta_mean_motion_ddot": 0,
        "tle_line1": "1 43602U 18067A   25341.75178375  .00000056  00000+0  00000+0 0  9994",
        "tle_line2": "2 43602  54.1832 187.5325 0009165  40.8071 319.3279  1.86227677 49555"
      },
      "geometry": {
        "type": "Point",
        "coordinates": [
          -57.93574584735359,
          51.541805571729846
        ]
      }
    },
    {
      "type": "Feature",
      "properties": {
        "norad_id": 43603,
        "name": "BEIDOU-3 M11 (C25)",
        "group": "gnss",
        "lat": 11.815704064374064,
        "lon": -163.84625318366977,
        "alt_km": 21512.68503291139,
        "timestamp": "2025-12-08T23:34:04.212410+00:00",
        "meta_object_name": "BEIDOU-3 M11 (C25)",
        "meta_object_id": "2018-067B",
        "meta_epoch": "2025-12-07T08:23:01.607424",
        "meta_mean_motion": 1.86227152,
        "meta_eccentricity": 0.00055806,
        "meta_inclination": 54.1802,
        "meta_ra_of_asc_node": 187.5103,
        "meta_arg_of_pericenter": 36.6822,
        "meta_mean_anomaly": 323.425,
        "meta_ephemeris_type": 0,
        "meta_classification_type": "U",
        "meta_norad_cat_id": 43603,
        "meta_element_set_no": 999,
        "meta_rev_at_epoch": 4957,
        "meta_bstar": 0,
        "meta_mean_motion_dot": 6e-07,
        "meta_mean_motion_ddot": 0,
        "tle_line1": "1 43603U 18067B   25341.34932416  .00000060  00000+0  00000+0 0  9999",
        "tle_line2": "2 43603  54.1802 187.5103 0005580  36.6822 323.4250  1.86227152 49576"
      },
      "geometry": {
        "type": "Point",
        "coordinates": [
          -163.84625318366977,
          11.815704064374064
        ]
      }
    },
    {
      "type": "Feature",
      "properties": {
        "norad_id": 43622,
        "name": "BEIDOU-3 M13 (C32)",
        "group": "gnss",
        "lat": 35.218808109457655,
        "lon": 96.8364690526526,
        "alt_km": 21528.177746398855,
        "timestamp": "2025-12-08T23:34:04.212422+00:00",
        "meta_object_name": "BEIDOU-3 M13 (C32)",
        "meta_object_id": "2018-072A",
        "meta_epoch": "2025-12-08T09:06:52.153056",
        "meta_mean_motion": 1.86230751,
        "meta_eccentricity": 0.00059246,
        "meta_inclination": 56.4552,
        "meta_ra_of_asc_node": 68.9648,
        "meta_arg_of_pericenter": 298.4192,
        "meta_mean_anomaly": 61.5427,
        "meta_ephemeris_type": 0,
        "meta_classification_type": "U",
        "meta_norad_cat_id": 43622,
        "meta_element_set_no": 999,
        "meta_rev_at_epoch": 4910,
        "meta_bstar": 0,
        "meta_mean_motion_dot": -4.5e-07,
        "meta_mean_motion_ddot": 0,
        "tle_line1": "1 43622U 18072A   25342.37977029 -.00000045  00000+0  00000+0 0  9993",
        "tle_line2": "2 43622  56.4552  68.9648 0005924 298.4192  61.5427  1.86230751 49104"
      },
      "geometry": {
        "type": "Point",
        "coordinates": [
          96.8364690526526,
          35.218808109457655
        ]
      }
    },
    {
      "type": "Feature",
      "properties": {
        "norad_id": 43623,
        "name": "BEIDOU-3 M14 (C33)",
        "group": "gnss",
        "lat": 36.85391136817208,
        "lon": -140.82229621116173,
        "alt_km": 21532.228038531586,
        "timestamp": "2025-12-08T23:34:04.212433+00:00",
        "meta_object_name": "BEIDOU-3 M14 (C33)",
        "meta_object_id": "2018-072B",
        "meta_epoch": "2025-12-08T05:53:08.473344",
        "meta_mean_motion": 1.8623075,
        "meta_eccentricity": 0.00032562,
        "meta_inclination": 56.4569,
        "meta_ra_of_asc_node": 68.9631,
        "meta_arg_of_pericenter": 332.5752,
        "meta_mean_anomaly": 27.4289,
        "meta_ephemeris_type": 0,
        "meta_classification_type": "U",
        "meta_norad_cat_id": 43623,
        "meta_element_set_no": 999,
        "meta_rev_at_epoch": 4909,
        "meta_bstar": 0,
        "meta_mean_motion_dot": -4.5e-07,
        "meta_mean_motion_ddot": 0,
        "tle_line1": "1 43623U 18072B   25342.24523696 -.00000045  00000+0  00000+0 0  9997",
        "tle_line2": "2 43623  56.4569  68.9631 0003256 332.5752  27.4289  1.86230750 49097"
      },
      "geometry": {
        "type": "Point",
        "coordinates": [
          -140.82229621116173,
          36.85391136817208
        ]
      }
    },
    {
      "type": "Feature",
      "properties": {
        "norad_id": 43647,
        "name": "BEIDOU-3 M16 (C35)",
        "group": "gnss",
        "lat": 22.518910938453615,
        "lon": -36.013739916406465,
        "alt_km": 21505.73277477273,
        "timestamp": "2025-12-08T23:34:04.212444+00:00",
        "meta_object_name": "BEIDOU-3 M16 (C35)",
        "meta_object_id": "2018-078A",
        "meta_epoch": "2025-12-08T09:40:29.398656",
        "meta_mean_motion": 1.86232194,
        "meta_eccentricity": 0.00070857,
        "meta_inclination": 54.2661,
        "meta_ra_of_asc_node": 306.6728,
        "meta_arg_of_pericenter": 18.9139,
        "meta_mean_anomaly": 341.1002,
        "meta_ephemeris_type": 0,
        "meta_classification_type": "U",
        "meta_norad_cat_id": 43647,
        "meta_element_set_no": 999,
        "meta_rev_at_epoch": 4860,
        "meta_bstar": 0,
        "meta_mean_motion_dot": -7.3e-07,
        "meta_mean_motion_ddot": 0,
        "tle_line1": "1 43647U 18078A   25342.40311804 -.00000073  00000+0  00000+0 0  9994",
        "tle_line2": "2 43647  54.2661 306.6728 0007085  18.9139 341.1002  1.86232194 48608"
      },
      "geometry": {
        "type": "Point",
        "coordinates": [
          -36.013739916406465,
          22.518910938453615
        ]
      }
    }
  ]
}